NORAD_CAT_ID,OBJECT_NAME,OBJECT_TYPE,EPOCH,MEAN_MOTION,ECCENTRICITY,INCLINATION,RA_OF_ASC_NODE,ARG_OF_PERICENTER,MEAN_ANOMALY,BSTAR,MEAN_MOTION_DOT,MEAN_MOTION_DDOT,TLE_LINE0,TLE_LINE1,TLE_LINE2,SEMIMAJOR_AXIS,PERIOD,APOGEE,PERIGEE,DECAYED
53530.0,STARLINK-4482,PAYLOAD,2023-11-04 07:16:02,15.08845932,0.0001702,53.2175,318.8095,93.6621,266.4566,0.00025584,3.787e-05,0.0,0 STARLINK-4482,1 53530U 22101D   23308.30280845  .00003787  00000-0  25584-3 0  9990,2 53530  53.2175 318.8095 0001702  93.6621 266.4566 15.08845932 66879,6917.862,95.437,540.905,538.55,0.0
53530.0,STARLINK-4482,PAYLOAD,2023-11-04 18:23:44,15.08846586,0.0001558,53.2175,316.7282,97.2717,262.8453,0.0002669,3.963e-05,0.0,0 STARLINK-4482,1 53530U 22101D   23308.76648824  .00003963  00000-0  26690-3 0  9990,2 53530  53.2175 316.7282 0001558  97.2717 262.8453 15.08846586 66948,6917.86,95.437,540.803,538.647,0.0
53530.0,STARLINK-4482,PAYLOAD,2023-11-05 03:56:03,15.0884696,0.0001681,53.2173,314.946,94.519,265.5994,0.00030067,4.501e-05,0.0,0 STARLINK-4482,1 53530U 22101D   23309.16392910  .00004501  00000-0  30067-3 0  9999,2 53530  53.2173 314.9460 0001681  94.5190 265.5994 15.08846960 67000,6917.859,95.437,540.887,538.561,0.0
53530.0,STARLINK-4482,PAYLOAD,2023-11-05 07:06:49,15.08853595,0.0001804,53.2183,314.3493,101.5457,258.5738,0.00033907,5.114e-05,0.0,0 STARLINK-4482,1 53530U 22101D   23309.29640583  .00005114  00000-0  33907-3 0  9992,2 53530  53.2183 314.3493 0001804 101.5457 258.5738 15.08853595 67025,6917.839,95.437,540.952,538.456,0.0
53530.0,STARLINK-4482,PAYLOAD,2023-11-06 06:57:35,15.08871653,0.0001735,53.2179,309.8909,91.744,268.3751,0.0007659,0.00011933,0.0,0 STARLINK-4482,1 53530U 22101D   23310.28999876  .00011933  00000-0  76590-3 0  9996,2 53530  53.2179 309.8909 0001735  91.7440 268.3751 15.08871653 67171,6917.784,95.436,540.849,538.448,0.0
53530.0,STARLINK-4482,PAYLOAD,2023-11-07 03:37:39,15.08795722,0.0001259,53.2176,306.0237,98.1979,261.9156,-0.00074076,-0.00012043,0.0,0 STARLINK-4482,1 53530U 22101D   23311.15114924 -.00012043  00000-0 -74076-3 0  9998,2 53530  53.2176 306.0237 0001259  98.1979 261.9156 15.08795722 67305,6918.016,95.44,540.752,539.01,0.0
53530.0,STARLINK-4482,PAYLOAD,2023-11-07 06:48:25,15.08798838,0.0001225,53.2173,305.4291,94.5441,265.5691,-0.00056489,-9.257e-05,0.0,0 STARLINK-4482,1 53530U 22101D   23311.28363337 -.00009257  00000-0 -56489-3 0  9997,2 53530  53.2173 305.4291 0001225  94.5441 265.5691 15.08798838 67329,6918.006,95.44,540.719,539.024,0.0
53530.0,STARLINK-4482,PAYLOAD,2023-11-07 16:20:44,15.08816817,0.0001229,53.2182,303.6459,101.8677,258.2453,-5.3e-05,-1.131e-05,0.0,0 STARLINK-4482,1 53530U 22101D   23311.68107355 -.00001131  00000-0 -53000-4 0  9997,2 53530  53.2182 303.6459 0001229 101.8677 258.2453 15.08816817 67381,6917.951,95.439,540.666,538.966,0.0
53530.0,STARLINK-4482,PAYLOAD,2023-11-08 03:28:26,15.08847732,0.000128,53.2179,301.5641,87.1409,272.973,0.0005187,7.979e-05,0.0,0 STARLINK-4482,1 53530U 22101D   23312.14474652  .00007979  00000-0  51870-3 0  9992,2 53530  53.2179 301.5641 0001280  87.1409 272.9730 15.08847732 67452,6917.857,95.437,540.607,538.836,0.0
53530.0,STARLINK-4482,PAYLOAD,2023-11-08 08:14:35,15.08845954,0.0001246,53.2179,300.6718,90.5367,269.5768,0.00046019,7.045e-05,0.0,0 STARLINK-4482,1 53530U 22101D   23312.34346564  .00007045  00000-0  46019-3 0  9997,2 53530  53.2179 300.6718 0001246  90.5367 269.5768 15.08845954 67480,6917.862,95.437,540.589,538.865,0.0
53530.0,STARLINK-4482,PAYLOAD,2023-11-08 16:11:30,15.08851103,0.0001273,53.2182,299.1885,93.2973,266.8165,0.0005497,8.474e-05,0.0,0 STARLINK-4482,1 53530U 22101D   23312.67466051  .00008474  00000-0  54970-3 0  9999,2 53530  53.2182 299.1885 0001273  93.2973 266.8165 15.08851103 67534,6917.846,95.437,540.592,538.831,0.0
53530.0,STARLINK-4482,PAYLOAD,2023-11-09 03:19:13,15.08841114,9.59e-05,53.2187,297.1115,92.2691,267.8411,0.0005151,7.92e-05,0.0,0 STARLINK-4482,1 53530U 22101D   23313.13834548  .00007920  00000-0  51510-3 0  9993,2 53530  53.2187 297.1115 0000959  92.2691 267.8411 15.08841114 67603,6917.877,95.437,540.405,539.079,0.0
53530.0,STARLINK-4482,PAYLOAD,2023-11-09 08:05:22,15.08849416,0.0001287,53.2186,296.2176,90.6205,269.4935,0.00055512,8.56e-05,0.0,0 STARLINK-4482,1 53530U 22101D   23313.33706290  .00008560  00000-0  55512-3 0  9994,2 53530  53.2186 296.2176 0001287  90.6205 269.4935 15.08849416 67632,6917.852,95.437,540.607,538.826,0.0
53530.0,STARLINK-4482,PAYLOAD,2023-11-10 07:56:08,15.08857801,0.0001259,53.2175,291.752,85.5653,274.5483,-2.8566e-05,-7.43e-06,0.0,0 STARLINK-4482,1 53530U 22101D   23314.33065274 -.00000743  00000-0 -28566-4 0  9992,2 53530  53.2175 291.7520 0001259  85.5653 274.5483 15.08857801 67780,6917.826,95.436,540.562,538.82,0.0
53530.0,STARLINK-4482,PAYLOAD,2023-11-10 15:53:04,15.08849715,0.0001307,53.2183,290.2643,86.9043,273.2098,-0.00013533,-2.442e-05,0.0,0 STARLINK-4482,1 53530U 22101D   23314.66185384 -.00002442  00000-0 -13533-3 0  9998,2 53530  53.2183 290.2643 0001307  86.9043 273.2098 15.08849715 67830,6917.851,95.437,540.62,538.812,0.0
53530.0,STARLINK-4482,PAYLOAD,2023-11-11 04:36:09,15.08850399,0.0001483,53.2179,287.8834,87.1872,272.929,3.494e-05,2.68e-06,0.0,0 STARLINK-4482,1 53530U 22101D   23315.19177124  .00000268  00000-0  34940-4 0  9998,2 53530  53.2179 287.8834 0001483  87.1872 272.9290 15.08850399 67916,6917.849,95.437,540.74,538.688,0.0
53530.0,STARLINK-4482,PAYLOAD,2023-11-11 15:43:51,15.08844171,0.0001363,53.2171,285.8024,91.0693,269.0455,1.4747e-05,-5.3e-07,0.0,0 STARLINK-4482,1 53530U 22101D   23315.65545386 -.00000053  00000-0  14747-4 0  9994,2 53530  53.2171 285.8024 0001363  91.0693 269.0455 15.08844171 67987,6917.868,95.437,540.676,538.79,0.0
53530.0,STARLINK-4482,PAYLOAD,2023-11-12 04:26:56,15.0883894,0.0001506,53.2172,283.4229,92.4609,267.6556,1.81e-05,0.0,0.0,0 STARLINK-4482,1 53530U 22101D   23316.18537938  .00000000  00000-0  18100-4 0  9995,2 53530  53.2172 283.4229 0001506  92.4609 267.6556 15.08838940 68063,6917.884,95.438,540.79,538.707,0.0
53530.0,STARLINK-4482,PAYLOAD,2023-11-12 07:37:42,15.08842806,0.0001514,53.2185,282.8274,100.9053,259.2109,6.0282e-05,6.72e-06,0.0,0 STARLINK-4482,1 53530U 22101D   23316.31785839  .00000672  00000-0  60282-4 0  9998,2 53530  53.2185 282.8274 0001514 100.9053 259.2109 15.08842806 68086,6917.872,95.437,540.784,538.689,0.0
53530.0,STARLINK-4482,PAYLOAD,2023-11-12 15:34:38,15.08844091,0.0001507,53.2185,281.3412,100.455,259.6612,6.4333e-05,7.36e-06,0.0,0 STARLINK-4482,1 53530U 22101D   23316.64905708  .00000736  00000-0  64333-4 0  9995,2 53530  53.2185 281.3412 0001507 100.4550 259.6612 15.08844091 68130,6917.868,95.437,540.775,538.69,0.0
53530.0,STARLINK-4482,PAYLOAD,2023-11-13 07:28:29,15.08856332,0.0001729,53.2191,278.366,101.5246,258.5941,2.4742e-05,1.06e-06,0.0,0 STARLINK-4482,1 53530U 22101D   23317.31144858  .00000106  00000-0  24742-4 0  9992,2 53530  53.2191 278.3660 0001729 101.5246 258.5941 15.08856332 68233,6917.83,95.437,540.892,538.499,0.0
53530.0,STARLINK-4482,PAYLOAD,2023-11-13 21:46:58,15.0883746,0.0002094,53.2177,275.6892,104.1417,255.9807,9.0424e-05,1.151e-05,0.0,0 STARLINK-4482,1 53530U 22101D   23317.90761965  .00001151  00000-0  90424-4 0  9992,2 53530  53.2177 275.6892 0002094 104.1417 255.9807 15.08837460 68322,6917.888,95.438,541.202,538.305,0.0
53530.0,STARLINK-4482,PAYLOAD,2023-11-14 04:08:30,15.08838635,0.0001455,53.2182,274.5019,86.5555,273.5603,0.00011705,1.575e-05,0.0,0 STARLINK-4482,1 53530U 22101D   23318.17258086  .00001575  00000-0  11705-3 0  9991,2 53530  53.2182 274.5019 0001455  86.5555 273.5603 15.08838635 68362,6917.885,95.438,540.756,538.743,0.0
53530.0,STARLINK-4482,PAYLOAD,2023-11-14 13:40:49,15.08838312,0.0001431,53.2174,272.7184,81.1901,278.9253,2.4947e-05,1.09e-06,0.0,0 STARLINK-4482,1 53530U 22101D   23318.57002083  .00000109  00000-0  24947-4 0  9994,2 53530  53.2174 272.7184 0001431  81.1901 278.9253 15.08838312 68425,6917.886,95.438,540.74,538.761,0.0
53530.0,STARLINK-4482,PAYLOAD,2023-11-14 21:37:45,15.0883597,0.0001454,53.2172,271.2327,84.5711,275.5447,-2.0714e-05,-6.18e-06,0.0,0 STARLINK-4482,1 53530U 22101D   23318.90122287 -.00000618  00000-0 -20714-4 0  9995,2 53530  53.2172 271.2327 0001454  84.5711 275.5447 15.08835970 68477,6917.893,95.438,540.764,538.752,0.0
53530.0,STARLINK-4482,PAYLOAD,2023-11-15 03:59:17,15.08844908,0.0001415,53.217,270.0437,81.5502,278.565,4.4995e-05,4.28e-06,0.0,0 STARLINK-4482,1 53530U 22101D   23319.16617858  .00000428  00000-0  44995-4 0  9991,2 53530  53.2170 270.0437 0001415  81.5502 278.5650 15.08844908 68511,6917.865,95.437,540.709,538.752,0.0
53530.0,STARLINK-4482,PAYLOAD,2023-11-16 02:14:42,15.08835066,0.0001497,53.218,265.8788,85.7667,274.3496,1.6962e-05,-1.8e-07,0.0,0 STARLINK-4482,1 53530U 22101D   23320.09354502 -.00000018  00000-0  16962-4 0  9998,2 53530  53.2180 265.8788 0001497  85.7667 274.3496 15.08835066 68653,6917.895,95.438,540.796,538.725,0.0
53530.0,STARLINK-4482,PAYLOAD,2023-11-17 05:16:15,15.08841652,0.0001628,53.2198,260.82,83.3618,276.7559,6.4532e-05,7.39e-06,0.0,0 STARLINK-4482,1 53530U 22101D   23321.21962578  .00000739  00000-0  64532-4 0  9996,2 53530  53.2198 260.8200 0001628  83.3618 276.7559 15.08841652 68825,6917.875,95.437,540.867,538.614,0.0
53530.0,STARLINK-4482,PAYLOAD,2023-11-17 13:13:11,15.08837563,0.0001395,53.2183,259.3344,91.6812,268.434,9.1344e-05,1.166e-05,0.0,0 STARLINK-4482,1 53530U 22101D   23321.55082713  .00001166  00000-0  91344-4 0  9993,2 53530  53.2183 259.3344 0001395  91.6812 268.4340 15.08837563 68877,6917.888,95.438,540.718,538.788,0.0
53530.0,STARLINK-4482,PAYLOAD,2023-11-18 13:03:58,15.08839615,0.0001425,53.2187,254.8768,95.9095,264.2059,8.5907e-05,1.08e-05,0.0,0 STARLINK-4482,1 53530U 22101D   23322.54442717  .00001080  00000-0  85907-4 0  9990,2 53530  53.2187 254.8768 0001425  95.9095 264.2059 15.08839615 69024,6917.882,95.438,540.732,538.761,0.0
